{"type": "FeatureCollection", "features": [ {"type": "Feature", "properties": {"norad_id": 66735, "name": "FLOCK 4H-32", "group": "last-30-days", "lat": 58.807911346679525, "lon": -101.41936488849109, "alt_km": 510.63135460124795, "timestamp": "2025-12-20T11:30:27.105357+00:00", "meta": {"OBJECT_NAME": "FLOCK 4H-32", "OBJECT_ID": "2025-276BX", "EPOCH": "2025-12-20T00:00:02.000160", "MEAN_MOTION": 15.17179707, "ECCENTRICITY": 0.0003264, "INCLINATION": 97.4441, "RA_OF_ASC_NODE": 65.6376, "ARG_OF_PERICENTER": 273.6646, "MEAN_ANOMALY": 109.598, "EPHEMERIS_TYPE": 0, "CLASSIFICATION_TYPE": "U", "NORAD_CAT_ID": 66735, "ELEMENT_SET_NO": 999, "REV_AT_EPOCH": 265, "BSTAR": 0.001275, "MEAN_MOTION_DOT": 0.00025327, "MEAN_MOTION_DDOT": 0}, "tle": {"line1": "1 66735U 25276BX  25354.00002315  .00025327  00000+0  12750-2 0  9994", "line2": "2 66735  97.4441  65.6376 0003264 273.6646 109.5980 15.17179707  2650"}}, "geometry": {"type": "Point", "coordinates": [-101.41936488849109, 58.807911346679525]}}, {"type": "Feature", "properties": {"norad_id": 66736, "name": "FLOCK 4H-33", "group": "last-30-days", "lat": -21.969145695791042, "lon": -116.88177716348306, "alt_km": 515.2658831803428, "timestamp": "2025-12-20T11:30:27.105367+00:00", "meta": {"OBJECT_NAME": "FLOCK 4H-33", "OBJECT_ID": "2025-276BY", "EPOCH": "2025-12-20T04:17:35.897280", "MEAN_MOTION": 15.18246372, "ECCENTRICITY": 0.0002379, "INCLINATION": 97.4438, "RA_OF_ASC_NODE": 65.8458, "ARG_OF_PERICENTER": 165.6799, "MEAN_ANOMALY": 194.4502, "EPHEMERIS_TYPE": 0, "CLASSIFICATION_TYPE": "U", "NORAD_CAT_ID": 66736, "ELEMENT_SET_NO": 999, "REV_AT_EPOCH": 325, "BSTAR": 0.00030675, "MEAN_MOTION_DOT": 6.215e-05, "MEAN_MOTION_DDOT": 0}, "tle": {"line1": "1 66736U 25276BY  25354.17888770  .00006215  00000+0  30675-3 0  9992", "line2": "2 66736  97.4438  65.8458 0002379 165.6799 194.4502 15.18246372  3259"}}, "geometry": {"type": "Point", "coordinates": [-116.88177716348306, -21.969145695791042]}}, {"type": "Feature", "properties": {"norad_id": 66737, "name": "FLOCK 4H-34", "group": "last-30-days", "lat": -13.988936576252758, "lon": -115.72412765843005, "alt_km": 514.7361506940142, "timestamp": "2025-12-20T11:30:27.105379+00:00", "meta": {"OBJECT_NAME": "FLOCK 4H-34", "OBJECT_ID": "2025-276BZ", "EPOCH": "2025-12-20T04:19:40.967328", "MEAN_MOTION": 15.18117302, "ECCENTRICITY": 0.000229, "INCLINATION": 97.445, "RA_OF_ASC_NODE": 65.8484, "ARG_OF_PERICENTER": 176.3551, "MEAN_ANOMALY": 183.77, "EPHEMERIS_TYPE": 0, "CLASSIFICATION_TYPE": "U", "NORAD_CAT_ID": 66737, "ELEMENT_SET_NO": 999, "REV_AT_EPOCH": 250, "BSTAR": 0.00022468, "MEAN_MOTION_DOT": 4.517e-05, "MEAN_MOTION_DDOT": 0}, "tle": {"line1": "1 66737U 25276BZ  25354.18033527  .00004517  00000+0  22468-3 0  9990", "line2": "2 66737  97.4450  65.8484 0002290 176.3551 183.7700 15.18117302  2508"}}, "geometry": {"type": "Point", "coordinates": [-115.72412765843005, -13.988936576252758]}}, {"type": "Feature", "properties": {"norad_id": 66738, "name": "FLOCK 4H-35", "group": "last-30-days", "lat": -22.037244986399983, "lon": -116.89895135409836, "alt_km": 515.8083856802823, "timestamp": "2025-12-20T11:30:27.105389+00:00", "meta": {"OBJECT_NAME": "FLOCK 4H-35", "OBJECT_ID": "2025-276CA", "EPOCH": "2025-12-20T04:17:34.387008", "MEAN_MOTION": 15.18213939, "ECCENTRICITY": 0.0002102, "INCLINATION": 97.4414, "RA_OF_ASC_NODE": 65.8381, "ARG_OF_PERICENTER": 149.7087, "MEAN_ANOMALY": 210.4268, "EPHEMERIS_TYPE": 0, "CLASSIFICATION_TYPE": "U", "NORAD_CAT_ID": 66738, "ELEMENT_SET_NO": 999, "REV_AT_EPOCH": 254, "BSTAR": 0.000327, "MEAN_MOTION_DOT": 6.624e-05, "MEAN_MOTION_DDOT": 0}, "tle": {"line1": "1 66738U 25276CA  25354.17887022  .00006624  00000+0  32700-3 0  9998", "line2": "2 66738  97.4414  65.8381 0002102 149.7087 210.4268 15.18213939  2549"}}, "geometry": {"type": "Point", "coordinates": [-116.89895135409836, -22.037244986399983]}}, {"type": "Feature", "properties": {"norad_id": 66739, "name": "FLOCK 4H-36", "group": "last-30-days", "lat": -2.2666546626566904, "lon": -114.15579735287311, "alt_km": 513.902763243791, "timestamp": "2025-12-20T11:30:27.105399+00:00", "meta": {"OBJECT_NAME": "FLOCK 4H-36", "OBJECT_ID": "2025-276CB", "EPOCH": "2025-12-20T04:22:45.066720", "MEAN_MOTION": 15.17959724, "ECCENTRICITY": 0.0002168, "INCLINATION": 97.4461, "RA_OF_ASC_NODE": 65.8486, "ARG_OF_PERICENTER": 192.7906, "MEAN_ANOMALY": 167.3274, "EPHEMERIS_TYPE": 0, "CLASSIFICATION_TYPE": "U", "NORAD_CAT_ID": 66739, "ELEMENT_SET_NO": 999, "REV_AT_EPOCH": 325, "BSTAR": 0.00024034, "MEAN_MOTION_DOT": 4.814e-05, "MEAN_MOTION_DDOT": 0}, "tle": {"line1": "1 66739U 25276CB  25354.18246605  .00004814  00000+0  24034-3 0  9996", "line2": "2 66739  97.4461  65.8486 0002168 192.7906 167.3274 15.17959724  3252"}}, "geometry": {"type": "Point", "coordinates": [-114.15579735287311, -2.2666546626566904]}}, {"type": "Feature", "properties": {"norad_id": 66740, "name": "TRANSPORTER-15 CC", "group": "last-30-days", "lat": 21.204875971339728, "lon": -110.96974578656183, "alt_km": 512.9041569290594, "timestamp": "2025-12-20T11:30:27.105409+00:00", "meta": {"OBJECT_NAME": "TRANSPORTER-15 CC", "OBJECT_ID": "2025-276CC", "EPOCH": "2025-12-20T04:28:54.145056", "MEAN_MOTION": 15.1767127, "ECCENTRICITY": 0.000196, "INCLINATION": 97.4423, "RA_OF_ASC_NODE": 65.8355, "ARG_OF_PERICENTER": 252.4875, "MEAN_ANOMALY": 107.6144, "EPHEMERIS_TYPE": 0, "CLASSIFICATION_TYPE": "U", "NORAD_CAT_ID": 66740, "ELEMENT_SET_NO": 999, "REV_AT_EPOCH": 325, "BSTAR": 0.00026319, "MEAN_MOTION_DOT": 5.235e-05, "MEAN_MOTION_DDOT": 0}, "tle": {"line1": "1 66740U 25276CC  25354.18673779  .00005235  00000+0  26319-3 0  9990", "line2": "2 66740  97.4423  65.8355 0001960 252.4875 107.6144 15.17671270  3255"}}, "geometry": {"type": "Point", "coordinates": [-110.96974578656183, 21.204875971339728]}}, {"type": "Feature", "properties": {"norad_id": 66741, "name": "TRANSPORTER-15 CD", "group": "last-30-days", "lat": 27.298774479898157, "lon": -110.01857980926417, "alt_km": 512.9363764011359, "timestamp": "2025-12-20T11:30:27.105421+00:00", "meta": {"OBJECT_NAME": "TRANSPORTER-15 CD", "OBJECT_ID": "2025-276CD", "EPOCH": "2025-12-20T04:30:22.113216", "MEAN_MOTION": 15.17097812, "ECCENTRICITY": 0.0001313, "INCLINATION": 97.442, "RA_OF_ASC_NODE": 65.8267, "ARG_OF_PERICENTER": 149.7198, "MEAN_ANOMALY": 210.4111, "EPHEMERIS_TYPE": 0, "CLASSIFICATION_TYPE": "U", "NORAD_CAT_ID": 66741, "ELEMENT_SET_NO": 999, "REV_AT_EPOCH": 325, "BSTAR": -0.0067002, "MEAN_MOTION_DOT": -0.00130377, "MEAN_MOTION_DDOT": 0}, "tle": {"line1": "1 66741U 25276CD  25354.18775594 -.00130377  00000+0 -67002-2 0  9990", "line2": "2 66741  97.4420  65.8267 0001313 149.7198 210.4111 15.17097812  3254"}}, "geometry": {"type": "Point", "coordinates": [-110.01857980926417, 27.298774479898157]}}, {"type": "Feature", "properties": {"norad_id": 66742, "name": "TRANSPORTER-15 CE", "group": "last-30-days", "lat": 18.093918517796197, "lon": -111.438246804498, "alt_km": 512.5664854154529, "timestamp": "2025-12-20T11:30:27.105434+00:00", "meta": {"OBJECT_NAME": "TRANSPORTER-15 CE", "OBJECT_ID": "2025-276CE", "EPOCH": "2025-12-20T04:28:04.958400", "MEAN_MOTION": 15.17673287, "ECCENTRICITY": 0.0001418, "INCLINATION": 97.4415, "RA_OF_ASC_NODE": 65.8259, "ARG_OF_PERICENTER": 202.2894, "MEAN_ANOMALY": 157.8278, "EPHEMERIS_TYPE": 0, "CLASSIFICATION_TYPE": "U", "NORAD_CAT_ID": 66742, "ELEMENT_SET_NO": 999, "REV_AT_EPOCH": 325, "BSTAR": 0.00028856, "MEAN_MOTION_DOT": 5.746e-05, "MEAN_MOTION_DDOT": 0}, "tle": {"line1": "1 66742U 25276CE  25354.18616850  .00005746  00000+0  28856-3 0  9994", "line2": "2 66742  97.4415  65.8259 0001418 202.2894 157.8278 15.17673287  3258"}}, "geometry": {"type": "Point", "coordinates": [-111.438246804498, 18.093918517796197]}}, {"type": "Feature", "properties": {"norad_id": 66743, "name": "TRANSPORTER-15 CF", "group": "last-30-days", "lat": 35.72613605374306, "lon": -108.49919500749114, "alt_km": 511.27097146326014, "timestamp": "2025-12-20T11:30:27.105444+00:00", "meta": {"OBJECT_NAME": "TRANSPORTER-15 CF", "OBJECT_ID": "2025-276CF", "EPOCH": "2025-12-19T15:53:04.937280", "MEAN_MOTION": 15.17467426, "ECCENTRICITY": 4.328e-05, "INCLINATION": 97.4415, "RA_OF_ASC_NODE": 65.3031, "ARG_OF_PERICENTER": 269.9787, "MEAN_ANOMALY": 90.1397, "EPHEMERIS_TYPE": 0, "CLASSIFICATION_TYPE": "U", "NORAD_CAT_ID": 66743, "ELEMENT_SET_NO": 999, "REV_AT_EPOCH": 317, "BSTAR": 0.00021277504, "MEAN_MOTION_DOT": 4.194e-05, "MEAN_MOTION_DDOT": 0}, "tle": {"line1": "1 66743U 25276CF  25353.66186270  .00004194  00000+0  21278-3 0  9992", "line2": "2 66743  97.4415  65.3031 0000432 269.9787  90.1397 15.17467426  3176"}}, "geometry": {"type": "Point", "coordinates": [-108.49919500749114, 35.72613605374306]}}, {"type": "Feature", "properties": {"norad_id": 66744, "name": "TRANSPORTER-15 CG", "group": "last-30-days", "lat": 42.107659726366514, "lon": -107.10189071938441, "alt_km": 511.12963784598196, "timestamp": "2025-12-20T11:30:27.105454+00:00", "meta": {"OBJECT_NAME": "TRANSPORTER-15 CG", "OBJECT_ID": "2025-276CG", "EPOCH": "2025-12-20T04:34:22.806336", "MEAN_MOTION": 15.17308878, "ECCENTRICITY": 0.00013, "INCLINATION": 97.4425, "RA_OF_ASC_NODE": 65.829, "ARG_OF_PERICENTER": 264.2083, "MEAN_ANOMALY": 95.9003, "EPHEMERIS_TYPE": 0, "CLASSIFICATION_TYPE": "U", "NORAD_CAT_ID": 66744, "ELEMENT_SET_NO": 999, "REV_AT_EPOCH": 325, "BSTAR": 0.0002427, "MEAN_MOTION_DOT": 4.771e-05, "MEAN_MOTION_DDOT": 0}, "tle": {"line1": "1 66744U 25276CG  25354.19054174  .00004771  00000+0  24270-3 0  9995", "line2": "2 66744  97.4425  65.8290 0001300 264.2083  95.9003 15.17308878  3253"}}, "geometry": {"type": "Point", "coordinates": [-107.10189071938441, 42.107659726366514]}}]}